Full_Address,Street_Address,Street_No,Street_Name,Suffix
"1008 GREENWOOD AVE HOT SPRINGS, AR 71913",1008 GREENWOOD AVE,1008,GREENWOOD,AVE
"1010 GREENWOOD AVE HOT SPRINGS, AR 71913",1010 GREENWOOD AVE,1010,GREENWOOD,AVE
"102 PERRY ST Hot Springs, AR 71901",102 PERRY ST,102,PERRY,ST
"1023 MINERAL ST HOT SPRINGS, AR 71901",1023 MINERAL ST,1023,MINERAL,ST
"1024 PLEASANT ST Hot Springs, AR 71901",1024 PLEASANT ST,1024,PLEASANT,ST
"103 CONES RD HOT SPRINGS, AR",103 CONES RD,103,CONES,RD
"104 APPIANWAY ST HOT SPRINGS, AR",104 APPIANWAY ST,104,APPIAN,ST
"104 COOLIDGE ST Hot Springs, AR 71901",104 COOLIDGE ST,104,COOLIDGE,ST
"104 PERRY ST Hot Springs, AR 71901",104 PERRY ST,104,PERRY,ST
"1041 TWIN POINTS RD HOT SPRINGS,",1041 TWIN POINTS RD,1041,TWIN POINTS,RD
"105 CURL ST  HOT SPRINGS, AR 71901",105 CURL ST,105,CURL,ST
"105 ERIE ST Hot Springs, AR 71901",105 ERIE ST,105,ERIE,ST
"106 WEBB LN HOT SPRINGS, AR",106 WEBB LN,106,WEBB,LN
"107 ERIE ST Hot Springs, AR 71901",107 ERIE ST,107,ERIE,ST
"107 LIBERTY ST Hot Springs, AR 71901",107 LIBERTY ST,107,LIBERTY,ST
"108 MARYMEE ST HOT SPRINGS, AR 71901",108 MARYMEE ST,108,MARYMEE,ST
"108 VERNEL ST Hot Springs, AR 71901",108 VERNEL ST,108,VERNEL,ST
"108 WADE ST Hot Springs, AR 71901",108 WADE ST,108,WADE,ST
"109 BERNARD ST Hot Springs, AR 71901",109 BERNARD ST,109,BERNARD,ST
"109 BOAZ ST Hot Springs, AR 71901",109 BOAZ ST,109,BOAZ,ST
"109 MADISON ST Hot Springs, AR 71901",109 MADISON ST,109,MADISON,ST
"109 ROOSEVELT ST HOT SPRINGS, AR 71913",109 ROOSEVELT ST,109,ROOSEVELT,ST
"110 BOAZ ST Hot Springs, AR 71901",110 BOAZ ST,110,BOAZ,ST
"1100 PARK AVE HOT SPRINGS,",1100 PARK AVE,1100,PARK,AVE
"1100 PARK AVE HOT SPRINGS, AR 71901",1100 PARK AVE,1100,PARK,AVE
"1102 SPRING ST Hot Springs, AR 71901",1102 SPRING ST,1102,SPRING,ST
"1104 SPRING ST Hot Springs, AR 71901",1104 SPRING ST,1104,SPRING,ST
"111 LAC TRL HOT SPRINGS, AR",111 LAC TRL,111,LAC,TRL
"112 BOUNDARY ST Hot Springs, AR 71901",112 BOUNDARY ST,112,BOUNDARY,ST
"112 PLEASANT ST Hot Springs, AR 71901",112 PLEASANT ST,112,PLEASANT,ST
"1134 PLEASANT ST HOT SPRINGS, AR",1134 PLEASANT ST,1134,PLEASANT,ST
"1134 PLEASANT ST HOT SPRINGS, AR 71901",1134 PLEASANT ST,1134,PLEASANT,ST
"115 PATRIOT ST HOT SPRINGS, AR 71901",115 PATRIOT ST,115,PATRIOT,ST
"115 PINEWOOD ST HOT SPRINGS, AR",115 PINEWOOD ST,115,PINEWOOD,ST
"117 DONNIE CT Hot Springs, AR 71913",117 DONNIE CT,117,DONNIE,CT
"117 PYRON ST Hot Springs, AR 71901",117 PYRON ST,117,PYRON,ST
"118 ASH ST Hot Springs, AR 71901",118 ASH ST,118,ASH,ST
"118 ASHLAND ST Hot Springs, AR 71901",118 ASHLAND ST,118,ASHLAND,ST
"118 MELLERSH ST Hot Springs, AR 71901",118 MELLERSH ST,118,MELLERSH,ST
"1207 SPRING ST Hot Springs, AR 71901",1207 SPRING ST,1207,SPRING,ST
"122 FAIRVIEW ST Hot Springs, AR 71901",122 FAIRVIEW ST,122,FAIRVIEW,ST
"123 DAISY ST Hot Springs, AR 71901",123 DAISY ST,123,DAISY,ST
"124 S LAKELAND PT HOT SPRINGS, AR 71913",124 S LAKELAND PT,124,S LAKELAND,PT
"125 DAISY ST Hot Springs, AR 71901",125 DAISY ST,125,DAISY,ST
"126 GIBSON ST Hot Springs, AR 71901",126 GIBSON ST,126,GIBSON,ST
"128 FAIRVIEW ST Hot Springs, AR 71901",128 FAIRVIEW ST,128,FAIRVIEW,ST
"129 HANSFORD ST Hot Springs, AR 71901",129 HANSFORD ST,129,HANSFORD,ST
"131 AIRWAY ST Hot Springs, AR 71913",131 AIRWAY ST,131,AIRWAY,ST
"1324 7TH ST HOT SPRINGS, AR",1324 7TH ST,1324,7TH,ST
"134 GULPHA ST Hot Springs, AR 71901",134 GULPHA ST,134,GULPHA,ST
"1400 HOBSON AVE APT A HOT SPRINGS,",1400 HOBSON AVE APT A,1400,HOBSON VE PT,A
"145 MONTROSE PO BOX, AR 71658",145 MONTROSE PO BOX,145,MONTROSE PO,BOX
"1531 SPRING ST Hot Springs, AR 71901",1531 SPRING ST,1531,SPRING,ST
"159 RAVINE ST Hot Springs, AR 71901",159 RAVINE ST,159,RAVINE,ST
"173 BARBARY RD HOT SPRINGS, AR 71913",173 BARBARY RD,173,BARBARY,RD
"200 LEACH ST HOT SPRINGS, AR",200 LEACH ST,200,LEACH,ST
"200 LEACH ST Hot Springs, AR 71913",200 LEACH ST,200,LEACH,ST
"201 ILLINOIS ST Hot Springs, AR 71901",201 ILLINOIS ST,201,ILLINOIS,ST
"203 SELMA ST HOT SPRINGS, AR",203 SELMA ST,203,SELMA,ST
"203 SELMA ST HOT SPRINGS, AR 71901",203 SELMA ST,203,SELMA,ST
"204 LEAWOOD ST Hot Springs, AR 71901",204 LEAWOOD ST,204,LEAWOOD,ST
"206 BOWER ST HOT SPRINGS, AR 7",206 BOWER ST,206,BOWER,ST
"206 WOOD ST HOT SPRINGS, AR",206 WOOD ST,206,WOOD,ST
"207 EXAS ST HOT SPRINGS, AR 71901",207 EXAS ST,207,EXAS,ST
"207 OSTEGO ST HOT SPRINGS, AR 71901",207 OSTEGO ST,207,OEGO,ST
"207 TEXAS ST HOT SPRINGS, AR",207 TEXAS ST,207,TEXAS,ST
"207 TEXAS ST HOT SPRINGS, AR 7",207 TEXAS ST,207,TEXAS,ST
"208 FLEET ST Hot Springs, AR 71913",208 FLEET ST,208,FLEET,ST
"208 PEARL ST Hot Springs, AR 71913",208 PEARL ST,208,PEARL,ST
"208 WOOD ST HOT SPRINGS, AR",208 WOOD ST,208,WOOD,ST
"211 BLAKE ST HOT SPRINGS, AR",211 BLAKE ST,211,BLAKE,ST
"211 MASON ST Hot Springs, AR 71913",211 MASON ST,211,MASON,ST
"213 BLAKE ST Hot Springs, AR 719",213 BLAKE ST,213,BLAKE,ST
"213 DETROIT ST Hot Springs, AR 71901",213 DETROIT ST,213,DETROIT,ST
"213 MAGNOLIA ST Hot Springs, AR 71901",213 MAGNOLIA ST,213,MAGNOLIA,ST
"213 MEADOW ST HOT SPRINGS, AR",213 MEADOW ST,213,MEADOW,ST
"2137 SPRING ST Hot Springs, AR 71901",2137 SPRING ST,2137,SPRING,ST
"214 ASH ST Hot Springs, AR 71901",214 ASH ST,214,ASH,ST
"214 WALL ST HOT SPRINGS, AR",214 WALL ST,214,WALL,ST
"214 WALL ST HOT SPRINGS, AR 71901",214 WALL ST,214,WALL,ST
"215 TEXAS ST Hot Springs, AR 71901",215 TEXAS ST,215,TEXAS,ST
"216 COTTRELL AVE Hot Springs, AR 71901",216 COTTRELL AVE,216,COTTRELL,AVE
"217 PARK AVE Hot Springs, AR 71901",217 PARK AVE,217,PARK,AVE
"217 PARK AVE Hot Springs, AR 71901 STANDARD -",217 PARK AVE,217,PARK,AVE
"217 SABIE ST APT A HOT SPRINGS, AR 71901",217 SABIE ST APT A,217,SBIE ST PT,A
"219 PLAIN ST HOT SPRINGS, AR",219 PLAIN ST,219,PLAIN,ST
"220 WOOD ST HOT SPRINGS, AR",220 WOOD ST,220,WOOD,ST
"225 MOLLY SPRINGS RD HOT SPRINGS,",225 MOLLY SPRINGS RD,225,MOLLY SPRINGS,RD
"229 BLUFF ST Hot Springs, AR 71901",229 BLUFF ST,229,BLUFF,ST
"230 POTTER ST Hot Springs, AR 71901",230 POTTER ST,230,POTTER,ST
"236 PALMETTO ST Hot Springs, AR 71901",236 PALMETTO ST,236,PALMETTO,ST
"238 WALNUT ST Hot Springs, AR 71901",238 WALNUT ST,238,WALNUT,ST
"240 WAHOO ST HOT SPRINGS,",240 WAHOO ST,240,WAHOO,ST
"240 WAHOO ST HOT SPRINGS, AR 71901",240 WAHOO ST,240,WAHOO,ST
"249 MAGNOLIA ST Hot Springs, AR 71901",249 MAGNOLIA ST,249,MAGNOLIA,ST
"250 GARLAND AVE HOT SPRINGS, AR",250 GARLAND AVE,250,GARLAND,AVE
"264 VINEYARD ST HOT SPRINGS, AR",264 VINEYARD ST,264,VINEYARD,ST
"265 GLADE ST Hot Springs, AR 71901",265 GLADE ST,265,GLADE,ST
"265 POND ST Hot Springs, AR 71913",265 POND ST,265,POND,ST
"267 GLADE ST Hot Springs, AR 71901",267 GLADE ST,267,GLADE,ST
"2738 PO BOX HOT SPRINGS, AR 71914",2738 PO BOX,2738,PO,BOX
"275 WOODLAWN AVE HOT SPRINGS, AR",275 WOODLAWN AVE,275,WOODLAWN,AVE
"3 BLAKE ST Hot Springs, AR 71901",3 BLAKE ST,3,BLAKE,ST
"3 MAGNOLIA ST Hot Springs, AR 71901",3 MAGNOLIA ST,3,MAGNOLIA,ST
"302 OAKCLIFF ST Hot Springs, AR 71901",302 OAKCLIFF ST,302,OAKCLIFF,ST
"303 DEXTER ST Hot Springs, AR 71913",303 DEXTER ST,303,DEXTER,ST
"304 E BELDING ST Hot Springs, AR 71901",304 E BELDING ST,304,E BELDING,ST
"304 FAIRMONT ST Hot Springs, AR 71901",304 FAIRMONT ST,304,FAIRMONT,ST
"305 POPLAR ST Hot Springs, AR 71901",305 POPLAR ST,305,POPLAR,ST
"306 ASHLAND ST HOT SPRINGS, AR 71901",306 ASHLAND ST,306,ASHLAND,ST
"306 RECTOR ST HOT SPRINGS, AR 71913",306 RECTOR ST,306,RECTOR,ST
"306 STATE ST Hot Springs, AR 71901",306 STATE ST,306,ATE,ST
"309 GARDEN ST Hot Springs, AR 71901",309 GARDEN ST,309,GARDEN,ST
"309 GLADE ST Hot Springs, AR 71901",309 GLADE ST,309,GLADE,ST
"309 RICHARD ST Hot Springs, AR 71913",309 RICHARD ST,309,RICHARD,ST
"310 BRENDA ST APT A HOT SPRINGS, AR",310 BRENDA ST APT A,310,BREND ST PT,A
"310 JACOBS ST HOT SPRINGS, AR 71901",310 JACOBS ST,310,JACOBS,ST
"314 COTTRELL AVE HOT SPRINGS, AR",314 COTTRELL AVE,314,COTTRELL,AVE
"314 VISTA AVE HOT SPRINGS, AR 7",314 VISTA AVE,314,VISTA,AVE
"321 BOWER ST HOT SPRINGS, AR 71901",321 BOWER ST,321,BOWER,ST
"322 OLA PO BOX, AR 72853",322 OLA PO BOX,322,OLA PO,BOX
"325 GROVE ST Hot Springs, AR 71901",325 GROVE ST,325,GROVE,ST
"329 COOPER ST Hot Springs, AR 71",329 COOPER ST,329,COOPER,ST
"331 BOAZ ST Hot Springs, AR 71901",331 BOAZ ST,331,BOAZ,ST
"333 RIDGEWAY ST HOT SPRINGS, AR",333 RIDGEWAY ST,333,RIDGEWAY,ST
"337 WALNUT ST Hot Springs, AR 71901",337 WALNUT ST,337,WALNUT,ST
"354 SILVER ST Hot Springs, AR 71901",354 SILVER ST,354,SILVER,ST
"357 HOLLY ST Hot Springs, AR 71901",357 HOLLY ST,357,HOLLY,ST
"400 LEAWOOD ST Hot Springs, AR 71901",400 LEAWOOD ST,400,LEAWOOD,ST
"401 LAKESIDE RD HOT SPRINGS, AR 71901",401 LAKESIDE RD,401,LAKESIDE,RD
"402 WOODLAWN AVE HOT SPRINGS, AR",402 WOODLAWN AVE,402,WOODLAWN,AVE
"403 BOWER ST Hot Springs, AR 71901",403 BOWER ST,403,BOWER,ST
"403 SOUTH ST HOT SPRINGS, AR",403 SOUTH ST,403,SOUTH,ST
"405 BOWER ST Hot Springs, AR 71901",405 BOWER ST,405,BOWER,ST
"405 MISSISSIPPI ST HOT SPRINGS, AR",405 MISSISSIPPI ST,405,MISSISSIPPI,ST
"405 MISSISSIPPI ST Hot Springs, AR 71901",405 MISSISSIPPI ST,405,MISSISSIPPI,ST
"406 ESTELLE ST HOT SPRINGS, AR 71901",406 ESTELLE ST,406,EELLE,ST
"406 STOVER ST Hot Springs, AR 71913",406 STOVER ST,406,OVER,ST
"407 HENRY ST Hot Springs, AR 71901",407 HENRY ST,407,HENRY,ST
"407 MISSISSIPPI ST HOT SPRINGS, AR",407 MISSISSIPPI ST,407,MISSISSIPPI,ST
"409 APEX ST HOT SPRINGS, AR 71901",409 APEX ST,409,APEX,ST
"411 FRAZIER ST Hot Springs, AR 71901",411 FRAZIER ST,411,FRAZIER,ST
"412 HENDERSON ST HOT SPRINGS, AR",412 HENDERSON ST,412,HENDERSON,ST
"416 PALMETTO ST Hot Springs, AR 71901",416 PALMETTO ST,416,PALMETTO,ST
"416 STOVER ST Hot Springs, AR 71913",416 STOVER ST,416,OVER,ST
"417 E GRAND AVE Hot Springs, AR 71901",417 E GRAND AVE,417,E GRAND,AVE
"418 RESERVE ST APT 1 HOT SPRINGS, AR 71901",418 RESERVE ST APT 1,418,RESERVE ST APT,1
"420 CYPRESS ST Hot Springs, AR 71901",420 CYPRESS ST,420,CYPRESS,ST
"421 ALCORN ST HOT SPRINGS, AR 71901",421 ALCORN ST,421,ALCORN,ST
"445 WALNUT ST HOT SPRINGS, AR 71901",445 WALNUT ST,445,WALNUT,ST
"467 WALNUT VALLEY RD HOT SPRINGS, AR 71909",467 WALNUT VALLEY RD,467,WALNUT VALLEY,RD
"500 DERMOTT PO BOX, AR 71638",500 DERMOTT PO BOX,500,DERMOTT PO,BOX
"504 HOLLYWOOD AVE Hot Springs, AR 71901",504 HOLLYWOOD AVE,504,HOLLYWOOD,AVE
"504 HOLLYWOOD AVE Hot Springs, AR 71901 STANDARD -",504 HOLLYWOOD AVE,504,HOLLYWOOD,AVE
"507 CARVER ST Hot Springs, AR 71901",507 CARVER ST,507,CARVER,ST
"508 PARK AVE HOT SPRINGS, AR",508 PARK AVE,508,PARK,AVE
"508 PARK AVE HOT SPRINGS, AR 71901",508 PARK AVE,508,PARK,AVE
"512 2ND ST HOT SPRINGS, AR",512 2ND ST,512,2ND,ST
"512 GAINES AVE HOT SPRINGS, AR",512 GAINES AVE,512,GAINES,AVE
"516 SCHOOL ST HOT SPRINGS, AR 71913",516 SCHOOL ST,516,SCHOOL,ST
"569 ROYAL PO BOX, AR 71968",569 ROYAL PO BOX,569,ROYAL PO,BOX
"600 TRIVISTA LEFT ST Hot Springs, AR 71901",600 TRIVISTA LEFT ST,600,TRIVIA LEFT,ST
"605 SOUTH ST HOT SPRINGS, AR",605 SOUTH ST,605,SOUTH,ST
"605 SOUTH ST HOT SPRINGS, AR 71913",605 SOUTH ST,605,SOUTH,ST
"608 SCHOOL ST # A HOT SPRINGS, AR 71913",608 SCHOOL ST # A,608,SCHOOL ST #,A
"609 SOUTH ST HOT SPRINGS, AR",609 SOUTH ST,609,SOUTH,ST
"610 SOUTH ST HOT SPRINGS, AR 71913 STANDARD -",610 SOUTH ST,610,SOUTH,ST
"619 5TH ST HOT SPRINGS, AR",619 5TH ST,619,5TH,ST
"619 5TH ST HOT SPRINGS, AR 71913",619 5TH ST,619,5TH,ST
"631 5TH ST HOT SPRINGS, AR 71913",631 5TH ST,631,5TH,ST
"638 4TH ST APT B HOT SPRINGS, AR",638 4TH ST APT B,638,4TH ST APT,B
"704 SUMMER ST Hot Springs, AR 71901",704 SUMMER ST,704,SUMMER,ST
"705 SOUTH ST APT A HOT SPRINGS, AR",705 SOUTH ST APT A,705,SOUTH ST PT,A
"705 SOUTH ST APT D HOT SPRINGS, AR",705 SOUTH ST APT D,705,SOUTH ST APT,D
"706 SUMMER ST UNIT A HOT SPRINGS,",706 SUMMER ST UNIT A,706,SUMMER ST UNIT,A
"709 WARD ST Hot Springs, AR 71901",709 WARD ST,709,WARD,ST
"717 LAKESIDE RD HOT SPRINGS, AR 71901",717 LAKESIDE RD,717,LAKESIDE,RD
"718 WARD ST UNIT B HOT SPRINGS,",718 WARD ST UNIT B,718,WARD ST UNIT,B
"719 LAKESIDE RD Hot Springs, AR 71901",719 LAKESIDE RD,719,LAKESIDE,RD
"720 WARD ST Hot Springs, AR 71901",720 WARD ST,720,WARD,ST
"729 EWING ST Hot Springs, AR 71901",729 EWING ST,729,EWING,ST
"783 PO BOX HOT SPRINGS, AR 71902",783 PO BOX,783,PO,BOX
"7TH ST 1207 HOT SPRINGS, AR",7TH ST 1207,7TH,ST,1207
"809 ILLINOIS ST Hot Springs, AR 71901",809 ILLINOIS ST,809,ILLINOIS,ST
"898 TWIN POINTS RD HOT SPRINGS, AR",898 TWIN POINTS RD,898,TWIN POINTS,RD
"916 MINERAL ST Hot Springs, AR 71901",916 MINERAL ST,916,MINERAL,ST
"920 CONES RD Hot Springs, AR 71901",920 CONES RD,920,CONES,RD
"975 PO BOX HOT SPRINGS, AR 71902",975 PO BOX,975,PO BOX,
"GRAND AVE Hot Springs, AR 71901",GRAND AVE,,GRAND,AVE
"OAKLAWN ST Hot Springs, AR 71913",OAKLAWN ST,,OAKLAWN,ST
"PT 1 HOT SPRINGS, AR 71901",PT 1,1,PT,
"TRL Hot Springs, AR 71901",TRL,0,TRL,
"783 PO BOX HOT SPRINGS, AR 71902",783 PO BOX,783,PO BOX,
"7TH ST 1207 HOT SPRINGS, AR",7TH ST 1207,1207,7TH,ST